<?xml version="1.0" encoding="UTF-8"?>
<gpx version="1.1" creator="Winter Arc" xmlns="http://www.topografix.com/GPX/1/1">
  <trk>
    <name>footing-bois</name>
    <trkseg>
      <trkpt lat="48.8462" lon="2.3371"><ele>42</ele><time>2026-09-07T06:15:00Z</time></trkpt>
      <trkpt lat="48.8470" lon="2.3390"><ele>43</ele><time>2026-09-07T06:16:20Z</time></trkpt>
      <trkpt lat="48.8484" lon="2.3412"><ele>44</ele><time>2026-09-07T06:18:00Z</time></trkpt>
      <trkpt lat="48.8491" lon="2.3388"><ele>43</ele><time>2026-09-07T06:19:40Z</time></trkpt>
      <trkpt lat="48.8478" lon="2.3365"><ele>42</ele><time>2026-09-07T06:21:10Z</time></trkpt>
      <trkpt lat="48.8462" lon="2.3371"><ele>42</ele><time>2026-09-07T06:22:40Z</time></trkpt>
    </trkseg>
  </trk>
</gpx>
